#dP2022  9 13  6  0  0.00000000      96 __u+U ITR00 EXT  IAC
## 2227 194400.00000000   900.00000000 59835 0.2500000000000
+  116   C06C07C08C09C10C11C12C13C14C16C19C20C21C22C23C24C25
+        C26C27C28C29C30C32C33C34C35C36C37C38C39C40C41C42C43
+        C44C45C46E01E02E03E04E05E07E08E09E10E11E12E13E14E15
+        E18E19E21E24E25E26E27E30E31E33E34E36G01G02G03G04G05
+        G06G07G08G09G10G11G12G13G14G15G16G17G18G19G20G21G22
+        G24G25G26G27G28G29G30G31G32J02J03R01R02R03R04R05R07
+        R08R09R11R12R13R14R15R17R18R19R20R21R24R25  0  0  0
++        10  9 10  9  8 10 11 10  8 10  9  8  9  9 10  9  9
++         9  8  7 10  8  9  8  8  7  8  8 10  7  9  9  8 10
++        10  7  8  8  8  9  9  9  8  8  9  8  9  8  8  8  8
++         8  7  9  9  8  8  8  8  9  8  7  8  8  7  8  7  7
++         7  8  7  7  8  8  8  8  7  8  7  8  6  8  7  9  8
++         7  7  7  8  7  8  8  8  7  8  9  9  8  9  9  8  8
++         8  8  7  8  7  7  9  7  8  9  7  9  9 10  0  0  0
%c M  cc GPS ccc cccc cccc cccc cccc ccccc ccccc ccccc ccccc
%c cc cc ccc ccc cccc cccc cccc cccc ccccc ccccc ccccc ccccc
%f  0.0000000  0.000000000  0.00000000000  0.000000000000000
%f  0.0000000  0.000000000  0.00000000000  0.000000000000000
%i    0    0    0    0      0      0      0      0         0
%i    0    0    0    0      0      0      0      0         0
/* IAC                                ULTRA-RAPID PREDICTION
/* S/V CLOCKS ARE ALIGNED TO GNSS TIME                      
/* G:C1WC2W R:C1PC2P E:C1XC5X C:C2IC6I J:C1CC2S             
/* PCV:IGS14_2218 OL/AL:FES2004  NONE     YN ORB:CoN CLK:CoN
*  2022 09 13 21 45  0.00000000
PC06  -3398.161622  26559.931673 -32508.531585    831.889008
PC07 -17985.026375  31447.808805  21481.408874   -137.278612
PC08  -7987.557903  40583.873671   8651.339509    470.353536
PC09   5595.369218  30304.305292 -28184.708546   -864.640235
PC10 -10054.697055  31472.940013  26221.186040     97.065791
PC11 -17045.197224   5971.485921  21326.862153   -410.757471
PC12 -25159.313131  -8434.551484   8633.773176   -519.259525
PC13  -3125.841620  42178.930162   1659.483372     79.703953
PC14 -23150.506058  15359.609790  -2279.959659    650.683137
PC16  -6951.873164  23982.315761 -33747.030201    137.900133
PC19  17089.859551 -18963.805728  11309.623244   -648.085009
PC20  25302.789867 -10508.187980  -5374.157089    587.424423
PC21 -18797.479600  -4952.910571  20021.095829   -389.711797
PC22  -1323.198853 -16850.765307  22200.118820   -609.232012
PC23   3327.666075  27321.980580   4627.542646    -69.498509
PC24 -16062.568525   4811.527471 -22312.139710   -129.254740
PC25  -7963.804777  23958.380821 -11915.507655   -678.672558
PC26 -14250.725090 -14141.902325 -19376.200418     -7.127461
PC27  24047.516322  14151.961217    -96.181377     20.424642
PC28  11971.204345  19722.096132  15710.108769     12.619436
PC29   7710.653574 -13934.905761 -22921.327815     13.125539
PC30  23094.457173    118.988809 -15661.115440    502.900975
PC32  18795.706732   4863.719285 -20041.595454   -805.074690
PC33 -17041.324981  19042.154471 -11199.943948   -655.369625
PC34 -22566.601158    750.760257  16398.337374   -314.241164
PC35 -11332.668847 -19358.695806 -16624.700306    457.533203
PC36   8876.396263 -23370.402110  12424.528221   -194.146707
PC37  13461.681470  15762.550736  18714.182199   -186.244880
PC38 -12269.965976  37252.469918  15717.423258     24.024707
PC39 -11522.845476  21156.687862 -34580.586519     -0.447218
PC40 -25429.243656  25999.548720  21142.931816     -4.117258
PC41    836.075898  17083.047692 -22006.146880    -76.049068
PC42 -25349.503079   9673.423477   6519.467610   -289.993738
PC43  -8582.784635  13568.050981  22816.933231     14.063696
PC44 -24478.166725 -13428.221151   -144.808869     49.171447
PC45  -3515.986311 -27222.117286  -4958.476091    860.182021
PC46  15712.302601  -6711.995947  22065.327894   -539.769426
PE01 -16359.654912  -4753.154528 -24197.088039   -527.491528
PE02  16450.266301   4579.071572  24182.941237    324.519239
PE03  28004.734048   5568.010316  -7835.264219   -599.564896
PE04 -26763.254555   7244.345080 -10362.427835  -1114.838731
PE05  12786.417503  15385.594193 -21818.560700   -144.286143
PE07   9620.501711 -16104.707973  22899.915387   -705.109522
PE08  26704.372230  -7312.408041  10481.060214   -598.271814
PE09  -9671.887765  15974.469785 -22964.381416   -657.530069
PE10  -8966.422050  15073.659530  23836.674926   -476.634149
PE11   -764.500633  22892.747229  18734.215327   2234.070325
PE12 -15357.561673   5452.437150  24704.635243   -167.645876
PE13   1327.868622 -22397.892623 -19304.429814    430.569654
PE14  24457.141609  11270.781942   8892.800390  -1721.057629
PE15  15394.697599  -5227.484158 -24734.555321    720.597829
PE18 -13623.303806 -17592.736579 -18064.231499   -979.726603
PE19 -26844.276760  -7201.812364  10188.591069  -4539.189948
PE21  -3718.703844 -21184.881150 -20328.101205   -757.561369
PE24 -12748.472548  26486.209283   3571.008683   -835.263939
PE25   3491.147771  21380.580331  20184.830969   -587.584572
PE26 -13844.162616 -26099.769201  -1699.770490  -1609.624399
PE27  11955.036399 -26685.571348  -4564.097725   -391.386402
PE30  20631.361081 -15610.786962  14371.410943   -834.364587
PE31 -20430.368193  16451.294289 -13702.688085   -503.503185
PE33 -20294.544323 -14917.536594  15546.207425   -453.694386
PE34  20341.922298  14726.896760 -15692.419986     -4.364569
PE36  13390.328062  26272.395676   2596.092739   -431.042182
PG01 -16415.055306  -4221.267462  20233.824007    284.451123
PG02  18149.294992  12068.295659 -14448.171180   -646.138853
PG03 -18670.463512   5233.809249  17974.360224   -350.448618
PG04 -26353.839742   -879.871608  -3602.266128   -119.159751
PG05  13672.987466   6937.812202 -21871.868216    -96.563954
PG06   5757.641211  24800.926893   7498.467463    459.818724
PG07 -10374.761769  12527.486380 -20484.817673    307.785045
PG08 -25370.085828  -6015.017002  -6012.184850    -84.510766
PG09 -21282.800702   8166.934101 -13741.098175   -296.451911
PG10  10054.480510 -23229.046955   7655.187093     -3.145929
PG11  12179.357071  23285.412321  -3987.599323    -16.320948
PG12  18787.398881  -3086.129198  18211.586051   -277.871328
PG13  19718.459433  13246.844365 -12235.555061    386.950210
PG14 -12237.370775  22779.817125   5811.157302   -103.752601
PG15  25796.613930   3727.606455  -6304.700350    -29.254780
PG16  -8183.913953 -13383.595820 -21647.940294   -524.019277
PG17  -8115.589958  13582.512380  21779.638102    658.825877
PG18   9458.036161 -13641.246479 -20710.350984     49.521380
PG19   3602.182142  15340.567915  21181.764374    210.307684
PG20   4876.444590  19225.684798 -17764.619093    486.668212
PG21 -19009.079312 -12027.980131  15291.573399    159.472778
PG22  -6524.530128 -15858.630006  20747.683697    327.320690
PG24  18730.540319   7397.827608  17202.439607    136.502924
PG25  19149.830698 -14966.931806  10090.577260    371.695981
PG26  -1746.215681 -20473.221920 -16739.437376    228.371297
PG27 -17377.725798 -12650.221048 -16072.143140    211.788802
PG28  -5620.816174  21945.203433  14564.957064    338.358845
PG29  22334.658573  -5333.537251 -13464.925613   -551.302596
PG30  -2366.529194  21715.140661 -14842.259881   -536.937833
PG31  -6222.144332 -24864.762419   5818.041496   -193.245409
PG32   4097.177468 -14937.961828  21709.639602   -232.406073
PJ02 -26557.997145  31635.145188  -3920.620252     -4.973120
PJ03 -26128.659198  22399.586107  29419.027630     -1.577295
PR01  13313.380567 -13773.441245  16844.576507     14.689886
PR02  -6325.218805  -9231.134333  22963.837035    -22.660308
PR03 -20985.115894    150.092532  14582.706954     63.648402
PR04 -23748.641651   9168.079477  -1711.222678    157.468992
PR05 -13611.382372  13174.005860 -17092.036797     99.580163
PR07  21328.288281   -590.199984 -13906.511693     40.924384
PR08  23627.061173  -9377.511973   1964.802665    -67.166059
PR09   3188.255180  21565.194267  13202.348659     76.539756
PR11  11376.537086 -11696.270733  19627.749257     27.531135
PR12   6320.244643 -24355.083031   4176.061318     21.227471
PR13  -2130.922979 -22421.906771 -11983.891625    -26.772093
PR14 -10009.749859  -6369.892440 -22564.746092     24.258551
PR15 -11497.175448  12513.970263 -18995.462889     93.721006
PR17 -20514.266835 -12945.002940   7817.942761    560.855858
PR18 -15100.574865   -950.247462  20562.025632     42.265520
PR19  -3191.650443  10845.107259  22865.916871   -203.586770
PR20  13524.423334  18877.132765  10526.498081    -78.341267
PR21  20405.300192  12185.359442  -9314.656198   -333.482284
PR24 -14360.693132 -18651.902424  -9779.721365    114.410834
PR25  14860.938784    668.808787 -20694.304645     13.143870
EOF
